[{"OBJECT_NAME":"STARLINK-5377","OBJECT_ID":"2023-046BB","EPOCH":"2026-03-09T22:00:01.999584","MEAN_MOTION":15.10518743,"ECCENTRICITY":0.0002113,"INCLINATION":42.9998,"RA_OF_ASC_NODE":144.2164,"ARG_OF_PERICENTER":267.4994,"MEAN_ANOMALY":39.3239,"EPHEMERIS_TYPE":0,"CLASSIFICATION_TYPE":"U","NORAD_CAT_ID":56141,"ELEMENT_SET_NO":999,"REV_AT_EPOCH":577,"BSTAR":0.00020853406,"MEAN_MOTION_DOT":3.278e-5,"MEAN_MOTION_DDOT":0},{"OBJECT_NAME":"OBJECT B","OBJECT_ID":"2023-069B","EPOCH":"2026-03-09T13:07:46.108416","MEAN_MOTION":15.09579619,"ECCENTRICITY":0.00116524,"INCLINATION":41.0081,"RA_OF_ASC_NODE":274.4606,"ARG_OF_PERICENTER":279.7432,"MEAN_ANOMALY":80.2064,"EPHEMERIS_TYPE":0,"CLASSIFICATION_TYPE":"U","NORAD_CAT_ID":56732,"ELEMENT_SET_NO":999,"REV_AT_EPOCH":15516,"BSTAR":0.00042419683,"MEAN_MOTION_DOT":6.772e-5,"MEAN_MOTION_DDOT":0}]
